NORAD_CAT_ID,OBJECT_NAME,OBJECT_TYPE,EPOCH,MEAN_MOTION,ECCENTRICITY,INCLINATION,RA_OF_ASC_NODE,ARG_OF_PERICENTER,MEAN_ANOMALY,BSTAR,MEAN_MOTION_DOT,MEAN_MOTION_DDOT,TLE_LINE0,TLE_LINE1,TLE_LINE2,SEMIMAJOR_AXIS,PERIOD,APOGEE,PERIGEE,DECAYED
52278.0,STARLINK-3780,PAYLOAD,2023-05-05 10:15:16,15.08844316,0.0001146,53.2158,94.5478,95.3376,264.7747,8.536e-05,1.071e-05,0.0,0 STARLINK-3780,1 52278U 22041T   23125.42727781  .00001071  00000-0  85360-4 0  9999,2 52278  53.2158  94.5478 0001146  95.3376 264.7747 15.08844316 58697,6917.867,95.437,540.525,538.939,0.0
52278.0,STARLINK-3780,PAYLOAD,2023-05-06 05:19:54,15.08841297,0.000112,53.216,90.9784,95.373,264.739,6.6289e-05,7.67e-06,0.0,0 STARLINK-3780,1 52278U 22041T   23126.22216374  .00000767  00000-0  66289-4 0  9999,2 52278  53.2160  90.9784 0001120  95.3730 264.7390 15.08841297 58819,6917.876,95.437,540.516,538.967,0.0
52278.0,STARLINK-3780,PAYLOAD,2023-05-07 03:35:18,15.08848924,0.0001146,53.2164,86.8155,96.8269,263.2853,0.00014123,1.961e-05,0.0,0 STARLINK-3780,1 52278U 22041T   23127.14951835  .00001961  00000-0  14123-3 0  9995,2 52278  53.2164  86.8155 0001146  96.8269 263.2853 15.08848924 57732,6917.853,95.437,540.511,538.925,0.0
52278.0,STARLINK-3780,PAYLOAD,2023-05-08 03:26:06,15.08836504,0.0001131,53.2166,82.3556,94.2137,265.8984,5.1347e-05,5.29e-06,0.0,0 STARLINK-3780,1 52278U 22041T   23128.14312950  .00000529  00000-0  51347-4 0  9994,2 52278  53.2166  82.3556 0001131  94.2137 265.8984 15.08836504 59107,6917.891,95.438,540.538,538.974,0.0
52278.0,STARLINK-3780,PAYLOAD,2023-05-08 08:12:15,15.08842271,0.0001257,53.216,81.4655,86.303,273.8105,7.9978e-05,9.85e-06,0.0,0 STARLINK-3780,1 52278U 22041T   23128.34184537  .00000985  00000-0  79978-4 0  9990,2 52278  53.2160  81.4655 0001257  86.3030 273.8105 15.08842271 59139,6917.873,95.437,540.608,538.869,0.0
52278.0,STARLINK-3780,PAYLOAD,2023-05-09 06:27:38,15.08855851,0.0001306,53.2176,77.3004,93.4333,266.6808,7.1338e-05,8.48e-06,0.0,0 STARLINK-3780,1 52278U 22041T   23129.26919584  .00000848  00000-0  71338-4 0  9990,2 52278  53.2176  77.3004 0001306  93.4333 266.6808 15.08855851 59271,6917.832,95.437,540.6,538.793,0.0
52278.0,STARLINK-3780,PAYLOAD,2023-05-10 06:18:26,15.08843872,0.00015,53.2174,72.8397,88.863,271.2534,0.00014299,1.989e-05,0.0,0 STARLINK-3780,1 52278U 22041T   23130.26280610  .00001989  00000-0  14299-3 0  9992,2 52278  53.2174  72.8397 0001500  88.8630 271.2534 15.08843872 58208,6917.869,95.437,540.771,538.696,0.0
52278.0,STARLINK-3780,PAYLOAD,2023-05-11 02:58:27,15.0884729,0.0001563,53.2184,68.9806,115.2237,244.8917,2.5256e-05,1.14e-06,0.0,0 STARLINK-3780,1 52278U 22041T   23131.12392549  .00000114  00000-0  25256-4 0  9998,2 52278  53.2184  68.9806 0001563 115.2237 244.8917 15.08847290 58330,6917.858,95.437,540.804,538.642,0.0
52278.0,STARLINK-3780,PAYLOAD,2023-05-12 02:49:15,15.08839834,0.0001319,53.2174,64.5143,87.8044,272.3099,4.5515e-05,4.37e-06,0.0,0 STARLINK-3780,1 52278U 22041T   23132.11753531  .00000437  00000-0  45515-4 0  9998,2 52278  53.2174  64.5143 0001319  87.8044 272.3099 15.08839834 59708,6917.881,95.438,540.658,538.833,0.0
52278.0,STARLINK-3780,PAYLOAD,2023-05-13 02:40:01,15.08850848,0.0001209,53.216,60.0546,97.1005,263.0125,0.00018675,2.686e-05,0.0,0 STARLINK-3780,1 52278U 22041T   23133.11112798  .00002686  00000-0  18675-3 0  9997,2 52278  53.2160  60.0546 0001209  97.1005 263.0125 15.08850848 59851,6917.847,95.437,540.549,538.876,0.0
52278.0,STARLINK-3780,PAYLOAD,2023-05-14 02:30:49,15.08842843,0.0001219,53.2166,55.5936,93.2803,266.8329,0.00015659,2.205e-05,0.0,0 STARLINK-3780,1 52278U 22041T   23134.10473428  .00002205  00000-0  15659-3 0  9993,2 52278  53.2166  55.5936 0001219  93.2803 266.8329 15.08842843 60005,6917.872,95.437,540.58,538.893,0.0
52278.0,STARLINK-3780,PAYLOAD,2023-05-15 11:53:54,15.08844034,0.0001334,53.2176,49.3487,88.8715,271.243,0.00010676,1.412e-05,0.0,0 STARLINK-3780,1 52278U 22041T   23135.49577384  .00001412  00000-0  10676-3 0  9995,2 52278  53.2176  49.3487 0001334  88.8715 271.2430 15.08844034 60218,6917.868,95.437,540.656,538.81,0.0
52278.0,STARLINK-3780,PAYLOAD,2023-05-16 00:37:00,15.08835795,0.0001292,53.2178,46.9702,95.2078,264.9062,0.00031115,4.667e-05,0.0,0 STARLINK-3780,1 52278U 22041T   23136.02569848  .00004667  00000-0  31115-3 0  9997,2 52278  53.2178  46.9702 0001292  95.2078 264.9062 15.08835795 60292,6917.893,95.438,540.652,538.864,0.0
52278.0,STARLINK-3780,PAYLOAD,2023-05-17 03:38:33,15.08843228,0.0001271,53.2182,41.9154,87.0333,273.0804,5.952e-05,6.6e-06,0.0,0 STARLINK-3780,1 52278U 22041T   23137.15177447  .00000660  00000-0  59520-4 0  9992,2 52278  53.2182  41.9154 0001271  87.0333 273.0804 15.08843228 60467,6917.871,95.437,540.615,538.856,0.0
52278.0,STARLINK-3780,PAYLOAD,2023-05-17 21:07:47,15.08864949,0.0001311,53.2174,38.6418,83.4701,276.644,-0.00037498,-6.255e-05,0.0,0 STARLINK-3780,1 52278U 22041T   23137.88040900 -.00006255  00000-0 -37498-3 0  9992,2 52278  53.2174  38.6418 0001311  83.4701 276.6440 15.08864949 59352,6917.804,95.436,540.576,538.762,0.0
52278.0,STARLINK-3780,PAYLOAD,2023-05-18 00:18:33,15.08844284,0.0001077,53.2172,38.0474,85.0353,275.0762,5.7802e-05,6.32e-06,0.0,0 STARLINK-3780,1 52278U 22041T   23138.01289320  .00000632  00000-0  57802-4 0  9992,2 52278  53.2172  38.0474 0001077  85.0353 275.0762 15.08844284 59378,6917.867,95.437,540.477,538.987,0.0
52278.0,STARLINK-3780,PAYLOAD,2023-05-18 00:18:34,15.08840272,0.0001066,53.2172,38.0504,89.3523,270.7591,7.6922e-05,9.37e-06,0.0,0 STARLINK-3780,1 52278U 22041T   23138.01289580  .00000937  00000-0  76922-4 0  9992,2 52278  53.2172  38.0504 0001066  89.3523 270.7591 15.08840272 59371,6917.88,95.438,540.482,539.007,0.0
52278.0,STARLINK-3780,PAYLOAD,2023-05-19 01:44:44,15.08841343,0.000119,53.2186,33.2922,88.4117,271.7011,4.1083e-05,3.66e-06,0.0,0 STARLINK-3780,1 52278U 22041T   23139.07273776  .00000366  00000-0  41083-4 0  9995,2 52278  53.2186  33.2922 0001190  88.4117 271.7011 15.08841343 60756,6917.876,95.437,540.565,538.918,0.0
52278.0,STARLINK-3780,PAYLOAD,2023-05-19 20:49:22,15.08827979,0.0001203,53.2182,29.7232,100.487,259.6258,0.00012687,1.731e-05,0.0,0 STARLINK-3780,1 52278U 22041T   23139.86762540  .00001731  00000-0  12687-3 0  9998,2 52278  53.2182  29.7232 0001203 100.4870 259.6258 15.08827979 59656,6917.917,95.438,540.614,538.95,0.0
52278.0,STARLINK-3780,PAYLOAD,2023-05-20 01:35:32,15.08826505,0.0001245,53.2181,28.8315,96.4778,263.6356,0.00025988,3.849e-05,0.0,0 STARLINK-3780,1 52278U 22041T   23140.06634370  .00003849  00000-0  25988-3 0  9991,2 52278  53.2181  28.8315 0001245  96.4778 263.6356 15.08826505 60902,6917.922,95.438,540.648,538.925,0.0
52278.0,STARLINK-3780,PAYLOAD,2023-05-20 20:40:08,15.08848468,0.0001109,53.2187,25.261,88.4418,271.6701,0.00019191,2.768e-05,0.0,0 STARLINK-3780,1 52278U 22041T   23140.86121117  .00002768  00000-0  19191-3 0  9997,2 52278  53.2187  25.2610 0001109  88.4418 271.6701 15.08848468 59800,6917.855,95.437,540.487,538.952,0.0
52278.0,STARLINK-3780,PAYLOAD,2023-05-21 01:26:17,15.0886069,0.0001179,53.2176,24.3693,91.7958,268.3169,0.00040993,6.246e-05,0.0,0 STARLINK-3780,1 52278U 22041T   23141.05992715  .00006246  00000-0  40993-3 0  9998,2 52278  53.2176  24.3693 0001179  91.7958 268.3169 15.08860690 61054,6917.817,95.436,540.498,538.867,0.0
52278.0,STARLINK-3780,PAYLOAD,2023-05-21 15:44:47,15.08831027,0.0001551,53.2165,21.6954,87.5467,272.5702,-4.4228e-05,-9.92e-06,0.0,0 STARLINK-3780,1 52278U 22041T   23141.65610656 -.00000992  00000-0 -44228-4 0  9995,2 52278  53.2165  21.6954 0001551  87.5467 272.5702 15.08831027 61146,6917.908,95.438,540.846,538.7,0.0
52278.0,STARLINK-3780,PAYLOAD,2023-05-21 22:06:20,15.08824081,0.000112,53.2168,20.5041,81.8342,278.2777,-0.00017702,-3.103e-05,0.0,0 STARLINK-3780,1 52278U 22041T   23141.92106826 -.00003103  00000-0 -17702-3 0  9997,2 52278  53.2168  20.5041 0001120  81.8342 278.2777 15.08824081 59969,6917.929,95.439,540.569,539.019,0.0
52278.0,STARLINK-3780,PAYLOAD,2023-05-22 09:14:02,15.08832052,0.0001112,53.2169,18.4224,77.0524,283.0592,0.00045568,6.97e-05,0.0,0 STARLINK-3780,1 52278U 22041T   23142.38475272  .00006970  00000-0  45568-3 0  9996,2 52278  53.2169  18.4224 0001112  77.0524 283.0592 15.08832052 60035,6917.905,95.438,540.539,539.0,0.0
52278.0,STARLINK-3780,PAYLOAD,2023-05-22 18:46:21,15.08840389,0.0001149,53.2168,16.6387,65.7358,294.3754,0.00093159,0.0001457,0.0,0 STARLINK-3780,1 52278U 22041T   23142.78219540  .00014570  00000-0  93159-3 0  9998,2 52278  53.2168  16.6387 0001149  65.7358 294.3754 15.08840389 60096,6917.879,95.438,540.539,538.949,0.0
52278.0,STARLINK-3780,PAYLOAD,2023-05-23 21:47:54,15.08862729,0.0001134,53.2172,11.583,69.5262,290.5851,0.00068196,0.00010589,0.0,0 STARLINK-3780,1 52278U 22041T   23143.90826641  .00010589  00000-0  68196-3 0  9998,2 52278  53.2172  11.5830 0001134  69.5262 290.5851 15.08862729 60265,6917.811,95.436,540.46,538.891,0.0
52278.0,STARLINK-3780,PAYLOAD,2023-05-24 00:58:40,15.08863559,0.0001118,53.2172,10.9882,70.5845,289.5268,0.00065433,0.00010148,0.0,0 STARLINK-3780,1 52278U 22041T   23144.04074481  .00010148  00000-0  65433-3 0  9993,2 52278  53.2172  10.9882 0001118  70.5845 289.5268 15.08863559 61506,6917.808,95.436,540.447,538.9,0.0
52278.0,STARLINK-3780,PAYLOAD,2023-05-24 15:17:08,15.08847408,0.0001264,53.2175,8.3099,76.0912,284.022,0.00012593,1.717e-05,0.0,0 STARLINK-3780,1 52278U 22041T   23144.63690524  .00001717  00000-0  12593-3 0  9991,2 52278  53.2175   8.3099 0001264  76.0912 284.0220 15.08847408 61590,6917.858,95.437,540.597,538.848,0.0
52278.0,STARLINK-3780,PAYLOAD,2023-05-25 18:18:41,15.08842635,0.0001017,53.2163,3.2575,79.5893,280.5214,1.1121e-05,-1.11e-06,0.0,0 STARLINK-3780,1 52278U 22041T   23145.76298518 -.00000111  00000-0  11121-4 0  9998,2 52278  53.2163   3.2575 0001017  79.5893 280.5214 15.08842635 61762,6917.872,95.437,540.441,539.034,0.0
